{
    "links": {
        "self": "http://www.neowsapp.com/rest/v1/neo/3838133?api_key=iIulBulltgU6a56xZRHN4H3l9WmuAYTsLGpBGhQ2"
    },
    "id": "3838133",
    "neo_reference_id": "3838133",
    "name": "(2019 CX1)",
    "designation": "2019 CX1",
    "nasa_jpl_url": "http://ssd.jpl.nasa.gov/sbdb.cgi?sstr=3838133",
    "absolute_magnitude_h": 24.2,
    "estimated_diameter": {
        "kilometers": {
            "estimated_diameter_min": 0.0384197891,
            "estimated_diameter_max": 0.0859092601
        },
        "meters": {
            "estimated_diameter_min": 38.4197891064,
            "estimated_diameter_max": 85.9092601232
        },
        "miles": {
            "estimated_diameter_min": 0.0238729428,
            "estimated_diameter_max": 0.0533815229
        },
        "feet": {
            "estimated_diameter_min": 126.0491808919,
            "estimated_diameter_max": 281.8545369825
        }
    },
    "is_potentially_hazardous_asteroid": false,
    "close_approach_data": [
        {
            "close_approach_date": "2019-02-16",
            "close_approach_date_full": "2019-Feb-16 23:03",
            "epoch_date_close_approach": 1550358180000,
            "relative_velocity": {
                "kilometers_per_second": "15.9802185382",
                "kilometers_per_hour": "57528.7867375441",
                "miles_per_hour": "35746.1508481146"
            },
            "miss_distance": {
                "astronomical": "0.100391591",
                "lunar": "39.052328899",
                "kilometers": "15018368.17951117",
                "miles": "9331981.257027346"
            },
            "orbiting_body": "Earth"
        }
    ],
    "orbital_data": {
        "orbit_id": "3",
        "orbit_determination_date": "2019-02-14 07:18:24",
        "first_observation_date": "2019-02-05",
        "last_observation_date": "2019-02-12",
        "data_arc_in_days": 7,
        "observations_used": 19,
        "orbit_uncertainty": "9",
        "minimum_orbit_intersection": ".0977758",
        "jupiter_tisserand_invariant": "3.945",
        "epoch_osculation": "2458520.5",
        "eccentricity": ".4740765659126064",
        "semi_major_axis": "1.72757058138781",
        "inclination": "23.09403177363397",
        "ascending_node_longitude": "138.20024210",
        "orbital_period": "829.3772658479885",
        "perihelion_distance": ".908569852791832",
        "perihelion_argument": "65.69348807938155",
        "aphelion_distance": "2.546571309983787",
        "perihelion_time": "2458577.290089091560",
        "mean_anomaly": "335.3496594193978",
        "mean_motion": ".4340606076679973",
        "equinox": "J2000",
        "orbit_class": {
            "orbit_class_type": "APO",
            "orbit_class_description": "Near-Earth asteroid orbits which cross the Earth’s orbit similar to that of 1862 Apollo",
            "orbit_class_range": "a (semi-major axis) > 1.0 AU; q (perihelion) < 1.017 AU"
        }
    },
    "is_sentry_object": false
}